[{"OBJECT_NAME":"STARLINK-3456","OBJECT_ID":"2022-016AX","EPOCH":"2023-01-02T17:45:02.374848","MEAN_MOTION":15.08837366,"ECCENTRICITY":0.0002876,"INCLINATION":53.2174,"RA_OF_ASC_NODE":125.3309,"ARG_OF_PERICENTER":40.8502,"MEAN_ANOMALY":319.2706,"EPHEMERIS_TYPE":0,"CLASSIFICATION_TYPE":"U","NORAD_CAT_ID":51759,"ELEMENT_SET_NO":999,"REV_AT_EPOCH":4829,"BSTAR":2.9225e-5,"MEAN_MOTION_DOT":1.77e-6,"MEAN_MOTION_DDOT":0},{"OBJECT_NAME":"STARLINK-3622","OBJECT_ID":"2022-017A","EPOCH":"2023-01-02T16:53:22.603776","MEAN_MOTION":15.08839379,"ECCENTRICITY":0.0002875,"INCLINATION":53.2169,"RA_OF_ASC_NODE":155.4803,"ARG_OF_PERICENTER":44.5907,"MEAN_ANOMALY":315.5316,"EPHEMERIS_TYPE":0,"CLASSIFICATION_TYPE":"U","NORAD_CAT_ID":51768,"ELEMENT_SET_NO":999,"REV_AT_EPOCH":4862,"BSTAR":3.0526e-5,"MEAN_MOTION_DOT":1.97e-6,"MEAN_MOTION_DDOT":0},{"OBJECT_NAME":"STARLINK-3621","OBJECT_ID":"2022-017B","EPOCH":"2023-01-02T15:07:23.434176","MEAN_MOTION":15.08841807,"ECCENTRICITY":0.0002709,"INCLINATION":53.2172,"RA_OF_ASC_NODE":155.8209,"ARG_OF_PERICENTER":40.6889,"MEAN_ANOMALY":319.4305,"EPHEMERIS_TYPE":0,"CLASSIFICATION_TYPE":"U","NORAD_CAT_ID":51769,"ELEMENT_SET_NO":999,"REV_AT_EPOCH":4717,"BSTAR":8.5145e-6,"MEAN_MOTION_DOT":-1.53e-6,"MEAN_MOTION_DDOT":0},{"OBJECT_NAME":"STARLINK-3612","OBJECT_ID":"2022-017C","EPOCH":"2023-01-02T19:58:50.896128","MEAN_MOTION":15.08841182,"ECCENTRICITY":0.0002847,"INCLINATION":53.2167,"RA_OF_ASC_NODE":154.8974,"ARG_OF_PERICENTER":46.7045,"MEAN_ANOMALY":313.4185,"EPHEMERIS_TYPE":0,"CLASSIFICATION_TYPE":"U","NORAD_CAT_ID":51770,"ELEMENT_SET_NO":999,"REV_AT_EPOCH":4721,"BSTAR":4.2987e-5,"MEAN_MOTION_DOT":3.96e-6,"MEAN_MOTION_DDOT":0},{"OBJECT_NAME":"STARLINK-3614","OBJECT_ID":"2022-017D","EPOCH":"2023-01-02T16:38:53.023200","MEAN_MOTION":15.08838823,"ECCENTRICITY":0.0002877,"INCLINATION":53.2159,"RA_OF_ASC_NODE":155.5322,"ARG_OF_PERICENTER":52.3054,"MEAN_ANOMALY":307.8199,"EPHEMERIS_TYPE":0,"CLASSIFICATION_TYPE":"U","NORAD_CAT_ID":51771,"ELEMENT_SET_NO":999,"REV_AT_EPOCH":4863,"BSTAR":0.00020907,"MEAN_MOTION_DOT":3.04e-5,"MEAN_MOTION_DDOT":0},{"OBJECT_NAME":"STARLINK-3623","OBJECT_ID":"2022-017E","EPOCH":"2023-01-02T16:26:52.616544","MEAN_MOTION":15.08851855,"ECCENTRICITY":0.0002355,"INCLINATION":53.2173,"RA_OF_ASC_NODE":155.5644,"ARG_OF_PERICENTER":51.0231,"MEAN_ANOMALY":309.0971,"EPHEMERIS_TYPE":0,"CLASSIFICATION_TYPE":"U","NORAD_CAT_ID":51772,"ELEMENT_SET_NO":999,"REV_AT_EPOCH":4717,"BSTAR":3.9253e-5,"MEAN_MOTION_DOT":3.37e-6,"MEAN_MOTION_DDOT":0},{"OBJECT_NAME":"STARLINK-3624","OBJECT_ID":"2022-017F","EPOCH":"2023-01-02T16:37:28.873920","MEAN_MOTION":15.08843834,"ECCENTRICITY":0.0003242,"INCLINATION":53.2156,"RA_OF_ASC_NODE":155.521,"ARG_OF_PERICENTER":43.978,"MEAN_ANOMALY":316.1469,"EPHEMERIS_TYPE":0,"CLASSIFICATION_TYPE":"U","NORAD_CAT_ID":51773,"ELEMENT_SET_NO":999,"REV_AT_EPOCH":4718,"BSTAR":0.00016365,"MEAN_MOTION_DOT":2.317e-5,"MEAN_MOTION_DDOT":0},{"OBJECT_NAME":"STARLINK-3629","OBJECT_ID":"2022-017G","EPOCH":"2023-01-02T16:16:16.774752","MEAN_MOTION":15.08846509,"ECCENTRICITY":0.0003161,"INCLINATION":53.2165,"RA_OF_ASC_NODE":155.5919,"ARG_OF_PERICENTER":49.3256,"MEAN_ANOMALY":310.8011,"EPHEMERIS_TYPE":0,"CLASSIFICATION_TYPE":"U","NORAD_CAT_ID":51774,"ELEMENT_SET_NO":999,"REV_AT_EPOCH":4714,"BSTAR":4.0367e-5,"MEAN_MOTION_DOT":3.54e-6,"MEAN_MOTION_DDOT":0},{"OBJECT_NAME":"STARLINK-3620","OBJECT_ID":"2022-017H","EPOCH":"2023-01-02T16:32:11.230368","MEAN_MOTION":15.08839881,"ECCENTRICITY":0.000341,"INCLINATION":53.2145,"RA_OF_ASC_NODE":155.5492,"ARG_OF_PERICENTER":44.6467,"MEAN_ANOMALY":315.4799,"EPHEMERIS_TYPE":0,"CLASSIFICATION_TYPE":"U","NORAD_CAT_ID":51775,"ELEMENT_SET_NO":999,"REV_AT_EPOCH":4718,"BSTAR":0.00010668,"MEAN_MOTION_DOT":1.41e-5,"MEAN_MOTION_DDOT":0},{"OBJECT_NAME":"STARLINK-3608","OBJECT_ID":"2022-017J","EPOCH":"2023-01-02T17:46:22.024416","MEAN_MOTION":15.08882965,"ECCENTRICITY":0.0002887,"INCLINATION":53.2166,"RA_OF_ASC_NODE":155.3216,"ARG_OF_PERICENTER":47.1999,"MEAN_ANOMALY":312.9236,"EPHEMERIS_TYPE":0,"CLASSIFICATION_TYPE":"U","NORAD_CAT_ID":51776,"ELEMENT_SET_NO":999,"REV_AT_EPOCH":4715,"BSTAR":-0.00060476,"MEAN_MOTION_DOT":-9.913e-5,"MEAN_MOTION_DDOT":0},{"OBJECT_NAME":"STARLINK-3625","OBJECT_ID":"2022-017K","EPOCH":"2023-01-02T14:46:12.033120","MEAN_MOTION":15.08839935,"ECCENTRICITY":0.0002825,"INCLINATION":53.2158,"RA_OF_ASC_NODE":155.885,"ARG_OF_PERICENTER":51.9498,"MEAN_ANOMALY":308.1749,"EPHEMERIS_TYPE":0,"CLASSIFICATION_TYPE":"U","NORAD_CAT_ID":51777,"ELEMENT_SET_NO":999,"REV_AT_EPOCH":4716,"BSTAR":1.8985e-5,"MEAN_MOTION_DOT":1.4e-7,"MEAN_MOTION_DDOT":0},{"OBJECT_NAME":"STARLINK-3615","OBJECT_ID":"2022-017L","EPOCH":"2023-01-02T18:15:37.302624","MEAN_MOTION":15.08793983,"ECCENTRICITY":0.0002035,"INCLINATION":53.2171,"RA_OF_ASC_NODE":145.2162,"ARG_OF_PERICENTER":55.6585,"MEAN_ANOMALY":304.46,"EPHEMERIS_TYPE":0,"CLASSIFICATION_TYPE":"U","NORAD_CAT_ID":51778,"ELEMENT_SET_NO":999,"REV_AT_EPOCH":4714,"BSTAR":-0.00058065,"MEAN_MOTION_DOT":-9.506e-5,"MEAN_MOTION_DDOT":0},{"OBJECT_NAME":"STARLINK-3611","OBJECT_ID":"2022-017M","EPOCH":"2023-01-02T17:41:03.903936","MEAN_MOTION":15.08850373,"ECCENTRICITY":0.0003023,"INCLINATION":53.2159,"RA_OF_ASC_NODE":155.342,"ARG_OF_PERICENTER":48.0027,"MEAN_ANOMALY":312.1222,"EPHEMERIS_TYPE":0,"CLASSIFICATION_TYPE":"U","NORAD_CAT_ID":51779,"ELEMENT_SET_NO":999,"REV_AT_EPOCH":4715,"BSTAR":3.9939e-5,"MEAN_MOTION_DOT":3.47e-6,"MEAN_MOTION_DDOT":0},{"OBJECT_NAME":"STARLINK-3617","OBJECT_ID":"2022-017N","EPOCH":"2023-01-02T19:01:56.942688","MEAN_MOTION":15.08828981,"ECCENTRICITY":0.0002592,"INCLINATION":53.2157,"RA_OF_ASC_NODE":155.0882,"ARG_OF_PERICENTER":45.6207,"MEAN_ANOMALY":314.4997,"EPHEMERIS_TYPE":0,"CLASSIFICATION_TYPE":"U","NORAD_CAT_ID":51780,"ELEMENT_SET_NO":999,"REV_AT_EPOCH":4701,"BSTAR":-6.724e-6,"MEAN_MOTION_DOT":-3.95e-6,"MEAN_MOTION_DDOT":0},{"OBJECT_NAME":"STARLINK-3580","OBJECT_ID":"2022-017P","EPOCH":"2023-01-02T19:11:09.811968","MEAN_MOTION":15.08838364,"ECCENTRICITY":0.0003115,"INCLINATION":53.2159,"RA_OF_ASC_NODE":155.0553,"ARG_OF_PERICENTER":48.9981,"MEAN_ANOMALY":311.128,"EPHEMERIS_TYPE":0,"CLASSIFICATION_TYPE":"U","NORAD_CAT_ID":51781,"ELEMENT_SET_NO":999,"REV_AT_EPOCH":4701,"BSTAR":-1.9238e-5,"MEAN_MOTION_DOT":-5.95e-6,"MEAN_MOTION_DDOT":0},{"OBJECT_NAME":"STARLINK-3616","OBJECT_ID":"2022-017Q","EPOCH":"2023-01-02T18:00:56.969568","MEAN_MOTION":15.08834374,"ECCENTRICITY":0.0003233,"INCLINATION":53.2171,"RA_OF_ASC_NODE":165.2549,"ARG_OF_PERICENTER":46.3118,"MEAN_ANOMALY":313.8142,"EPHEMERIS_TYPE":0,"CLASSIFICATION_TYPE":"U","NORAD_CAT_ID":51782,"ELEMENT_SET_NO":999,"REV_AT_EPOCH":4677,"BSTAR":-2.4746e-5,"MEAN_MOTION_DOT":-6.83e-6,"MEAN_MOTION_DDOT":0},{"OBJECT_NAME":"STARLINK-3628","OBJECT_ID":"2022-017R","EPOCH":"2023-01-02T19:05:50.842176","MEAN_MOTION":15.08840696,"ECCENTRICITY":0.0002895,"INCLINATION":53.2159,"RA_OF_ASC_NODE":155.0706,"ARG_OF_PERICENTER":43.3201,"MEAN_ANOMALY":316.8018,"EPHEMERIS_TYPE":0,"CLASSIFICATION_TYPE":"U","NORAD_CAT_ID":51783,"ELEMENT_SET_NO":999,"REV_AT_EPOCH":4701,"BSTAR":4.6133e-7,"MEAN_MOTION_DOT":-2.81e-6,"MEAN_MOTION_DDOT":0}]
