STARLINK-3456           
1 51759U 22016AX  23002.73961082  .00000177  00000+0  29225-4 0  9999
2 51759  53.2174 125.3309 0002876  40.8502 319.2706 15.08837366 48294
STARLINK-3622           
1 51768U 22017A   23002.70373384  .00000197  00000+0  30526-4 0  9997
2 51768  53.2169 155.4803 0002875  44.5907 315.5316 15.08839379 48629
STARLINK-3621           
1 51769U 22017B   23002.63013234 -.00000153  00000+0  85145-5 0  9996
2 51769  53.2172 155.8209 0002709  40.6889 319.4305 15.08841807 47179
STARLINK-3612           
1 51770U 22017C   23002.83253352  .00000396  00000+0  42987-4 0  9991
2 51770  53.2167 154.8974 0002847  46.7045 313.4185 15.08841182 47218
STARLINK-3614           
1 51771U 22017D   23002.69366925  .00003040  00000+0  20907-3 0  9993
2 51771  53.2159 155.5322 0002877  52.3054 307.8199 15.08838823 48638
STARLINK-3623           
1 51772U 22017E   23002.68533121  .00000337  00000+0  39253-4 0  9998
2 51772  53.2173 155.5644 0002355  51.0231 309.0971 15.08851855 47176
STARLINK-3624           
1 51773U 22017F   23002.69269530  .00002317  00000+0  16365-3 0  9998
2 51773  53.2156 155.5210 0003242  43.9780 316.1469 15.08843834 47182
STARLINK-3629           
1 51774U 22017G   23002.67797193  .00000354  00000+0  40367-4 0  9997
2 51774  53.2165 155.5919 0003161  49.3256 310.8011 15.08846509 47149
STARLINK-3620           
1 51775U 22017H   23002.68901887  .00001410  00000+0  10668-3 0  9990
2 51775  53.2145 155.5492 0003410  44.6467 315.4799 15.08839881 47186
STARLINK-3608           
1 51776U 22017J   23002.74053269 -.00009913  00000+0 -60476-3 0  9990
2 51776  53.2166 155.3216 0002887  47.1999 312.9236 15.08882965 47153
STARLINK-3625           
1 51777U 22017K   23002.61541705  .00000014  00000+0  18985-4 0  9994
2 51777  53.2158 155.8850 0002825  51.9498 308.1749 15.08839935 47169
STARLINK-3615           
1 51778U 22017L   23002.76084841 -.00009506  00000+0 -58065-3 0  9993
2 51778  53.2171 145.2162 0002035  55.6585 304.4600 15.08793983 47140
STARLINK-3611           
1 51779U 22017M   23002.73685074  .00000347  00000+0  39939-4 0  9998
2 51779  53.2159 155.3420 0003023  48.0027 312.1222 15.08850373 47155
STARLINK-3617           
1 51780U 22017N   23002.79302017 -.00000395  00000+0 -67240-5 0  9991
2 51780  53.2157 155.0882 0002592  45.6207 314.4997 15.08828981 47016
STARLINK-3580           
1 51781U 22017P   23002.79941912 -.00000595  00000+0 -19238-4 0  9990
2 51781  53.2159 155.0553 0003115  48.9981 311.1280 15.08838364 47016
STARLINK-3616           
1 51782U 22017Q   23002.75065937 -.00000683  00000+0 -24746-4 0  9999
2 51782  53.2171 165.2549 0003233  46.3118 313.8142 15.08834374 46779
STARLINK-3628           
1 51783U 22017R   23002.79572734 -.00000281  00000+0  46133-6 0  9991
2 51783  53.2159 155.0706 0002895  43.3201 316.8018 15.08840696 47018
